{"type": "FeatureCollection", "features": [ {"type": "Feature", "properties": {"norad_id": 66052, "name": "HRC MONOBLOCK CAMERA", "group": "stations", "lat": -3.9606273195761528, "lon": 150.9900460172585, "alt_km": 409.2596963272845, "timestamp": "2025-12-10T04:57:28.381979+00:00", "meta": {"OBJECT_NAME": "HRC MONOBLOCK CAMERA", "OBJECT_ID": "1998-067XR", "EPOCH": "2025-12-09T18:10:29.332416", "MEAN_MOTION": 15.53817213, "ECCENTRICITY": 0.0003757, "INCLINATION": 51.6293, "RA_OF_ASC_NODE": 156.375, "ARG_OF_PERICENTER": 171.9059, "MEAN_ANOMALY": 188.1993, "EPHEMERIS_TYPE": 0, "CLASSIFICATION_TYPE": "U", "NORAD_CAT_ID": 66052, "ELEMENT_SET_NO": 999, "REV_AT_EPOCH": 837, "BSTAR": 0.00070101, "MEAN_MOTION_DOT": 0.00045676, "MEAN_MOTION_DDOT": 0}, "tle": {"line1": "1 66052U 98067XR  25343.75728394  .00045676  00000+0  70101-3 0  9990", "line2": "2 66052  51.6293 156.3750 0003757 171.9059 188.1993 15.53817213  8371"}}, "geometry": {"type": "Point", "coordinates": [150.9900460172585, -3.9606273195761528]}}, {"type": "Feature", "properties": {"norad_id": 66174, "name": "HTV-X1", "group": "stations", "lat": -47.81154494533604, "lon": 94.08122052426144, "alt_km": 421.72760883209867, "timestamp": "2025-12-10T04:57:28.381992+00:00", "meta": {"OBJECT_NAME": "HTV-X1", "OBJECT_ID": "2025-241A", "EPOCH": "2025-12-09T12:14:10.839552", "MEAN_MOTION": 15.49447168, "ECCENTRICITY": 0.00034, "INCLINATION": 51.631, "RA_OF_ASC_NODE": 158.4724, "ARG_OF_PERICENTER": 223.8185, "MEAN_ANOMALY": 136.2534, "EPHEMERIS_TYPE": 0, "CLASSIFICATION_TYPE": "U", "NORAD_CAT_ID": 66174, "ELEMENT_SET_NO": 999, "REV_AT_EPOCH": 51, "BSTAR": 0.00026025969, "MEAN_MOTION_DOT": 0.00014141, "MEAN_MOTION_DDOT": 0}, "tle": {"line1": "1 66174U 25241A   25343.50984768  .00014141  00000+0  26026-3 0  9991", "line2": "2 66174  51.6310 158.4724 0003400 223.8185 136.2534 15.49447168   518"}}, "geometry": {"type": "Point", "coordinates": [94.08122052426144, -47.81154494533604]}}, {"type": "Feature", "properties": {"norad_id": 66515, "name": "SZ-21 MODULE", "group": "stations", "lat": -1.804302406006212, "lon": -146.46009450065839, "alt_km": 379.0498012539065, "timestamp": "2025-12-10T04:57:28.382003+00:00", "meta": {"OBJECT_NAME": "SZ-21 MODULE", "OBJECT_ID": "2025-246C", "EPOCH": "2025-12-09T20:30:29.695968", "MEAN_MOTION": 15.6226557, "ECCENTRICITY": 0.0006298, "INCLINATION": 41.4773, "RA_OF_ASC_NODE": 33.6441, "ARG_OF_PERICENTER": 244.5965, "MEAN_ANOMALY": 115.4223, "EPHEMERIS_TYPE": 0, "CLASSIFICATION_TYPE": "U", "NORAD_CAT_ID": 66515, "ELEMENT_SET_NO": 999, "REV_AT_EPOCH": 399, "BSTAR": 0.0003668, "MEAN_MOTION_DOT": 0.0003312, "MEAN_MOTION_DDOT": 0}, "tle": {"line1": "1 66515U 25246C   25343.85451037  .00033120  00000+0  36680-3 0  9996", "line2": "2 66515  41.4773  33.6441 0006298 244.5965 115.4223 15.62265570  3990"}}, "geometry": {"type": "Point", "coordinates": [-146.46009450065839, -1.804302406006212]}}, {"type": "Feature", "properties": {"norad_id": 66645, "name": "SHENZHOU-22", "group": "stations", "lat": -33.11934768172994, "lon": -15.539469770111559, "alt_km": 390.70720228397204, "timestamp": "2025-12-10T04:57:28.382013+00:00", "meta": {"OBJECT_NAME": "SHENZHOU-22", "OBJECT_ID": "2025-272A", "EPOCH": "2025-12-09T13:49:14.456064", "MEAN_MOTION": 15.58965688, "ECCENTRICITY": 0.00089597, "INCLINATION": 41.4682, "RA_OF_ASC_NODE": 35.9133, "ARG_OF_PERICENTER": 5.1145, "MEAN_ANOMALY": 354.9784, "EPHEMERIS_TYPE": 0, "CLASSIFICATION_TYPE": "U", "NORAD_CAT_ID": 66645, "ELEMENT_SET_NO": 999, "REV_AT_EPOCH": 26300, "BSTAR": 0.00041052725, "MEAN_MOTION_DOT": 0.00032682, "MEAN_MOTION_DDOT": 0}, "tle": {"line1": "1 66645U 25272A   25343.57586176  .00032682  00000+0  41053-3 0  9993", "line2": "2 66645  41.4682  35.9133 0008959   5.1145 354.9784 15.58965688263007"}}, "geometry": {"type": "Point", "coordinates": [-15.539469770111559, -33.11934768172994]}}, {"type": "Feature", "properties": {"norad_id": 66664, "name": "SOYUZ-MS 28", "group": "stations", "lat": -47.811522963642034, "lon": 94.08129997227093, "alt_km": 421.7276102072492, "timestamp": "2025-12-10T04:57:28.382023+00:00", "meta": {"OBJECT_NAME": "SOYUZ-MS 28", "OBJECT_ID": "2025-275A", "EPOCH": "2025-12-09T12:14:10.838688", "MEAN_MOTION": 15.49447168, "ECCENTRICITY": 0.00034, "INCLINATION": 51.631, "RA_OF_ASC_NODE": 158.4724, "ARG_OF_PERICENTER": 223.8185, "MEAN_ANOMALY": 136.2534, "EPHEMERIS_TYPE": 0, "CLASSIFICATION_TYPE": "U", "NORAD_CAT_ID": 66664, "ELEMENT_SET_NO": 999, "REV_AT_EPOCH": 194, "BSTAR": 0.00026026, "MEAN_MOTION_DOT": 0.00014141, "MEAN_MOTION_DDOT": 0}, "tle": {"line1": "1 66664U 25275A   25343.50984767  .00014141  00000+0  26026-3 0  9991", "line2": "2 66664  51.6310 158.4724 0003400 223.8185 136.2534 15.49447168  1940"}}, "geometry": {"type": "Point", "coordinates": [94.08129997227093, -47.811522963642034]}}, {"type": "Feature", "properties": {"norad_id": 66906, "name": "1998-067XS", "group": "stations", "lat": -37.04233781753028, "lon": 118.25388127493781, "alt_km": 421.04698374200143, "timestamp": "2025-12-10T04:57:28.382033+00:00", "meta": {"OBJECT_NAME": "1998-067XS", "OBJECT_ID": "1998-067XS", "EPOCH": "2025-12-09T12:09:24.113376", "MEAN_MOTION": 15.50312686, "ECCENTRICITY": 0.00039811, "INCLINATION": 51.63, "RA_OF_ASC_NODE": 158.4502, "ARG_OF_PERICENTER": 188.2752, "MEAN_ANOMALY": 171.8172, "EPHEMERIS_TYPE": 0, "CLASSIFICATION_TYPE": "U", "NORAD_CAT_ID": 66906, "ELEMENT_SET_NO": 999, "REV_AT_EPOCH": 111, "BSTAR": 0.00059211588, "MEAN_MOTION_DOT": 0.00033864, "MEAN_MOTION_DDOT": 0}, "tle": {"line1": "1 66906U 98067XS  25343.50652909  .00033864  00000+0  59212-3 0  9995", "line2": "2 66906  51.6300 158.4502 0003981 188.2752 171.8172 15.50312686  1110"}}, "geometry": {"type": "Point", "coordinates": [118.25388127493781, -37.04233781753028]}}, {"type": "Feature", "properties": {"norad_id": 66907, "name": "1998-067XT", "group": "stations", "lat": -31.534815631564314, "lon": 125.87147315785636, "alt_km": 418.60053531178164, "timestamp": "2025-12-10T04:57:28.382043+00:00", "meta": {"OBJECT_NAME": "1998-067XT", "OBJECT_ID": "1998-067XT", "EPOCH": "2025-12-09T12:07:37.114752", "MEAN_MOTION": 15.50864429, "ECCENTRICITY": 0.00048036, "INCLINATION": 51.6307, "RA_OF_ASC_NODE": 158.4423, "ARG_OF_PERICENTER": 208.5081, "MEAN_ANOMALY": 151.5646, "EPHEMERIS_TYPE": 0, "CLASSIFICATION_TYPE": "U", "NORAD_CAT_ID": 66907, "ELEMENT_SET_NO": 999, "REV_AT_EPOCH": 111, "BSTAR": 0.0012921241, "MEAN_MOTION_DOT": 0.00076342, "MEAN_MOTION_DDOT": 0}, "tle": {"line1": "1 66907U 98067XT  25343.50529068  .00076342  00000+0  12921-2 0  9998", "line2": "2 66907  51.6307 158.4423 0004803 208.5081 151.5646 15.50864429  1113"}}, "geometry": {"type": "Point", "coordinates": [125.87147315785636, -31.534815631564314]}}, {"type": "Feature", "properties": {"norad_id": 66908, "name": "1998-067XU", "group": "stations", "lat": -30.676539494096517, "lon": 126.92459076988678, "alt_km": 418.5956284650965, "timestamp": "2025-12-10T04:57:28.382054+00:00", "meta": {"OBJECT_NAME": "1998-067XU", "OBJECT_ID": "1998-067XU", "EPOCH": "2025-12-09T18:18:28.282176", "MEAN_MOTION": 15.50948128, "ECCENTRICITY": 0.0005009, "INCLINATION": 51.6303, "RA_OF_ASC_NODE": 157.1615, "ARG_OF_PERICENTER": 208.2103, "MEAN_ANOMALY": 151.8616, "EPHEMERIS_TYPE": 0, "CLASSIFICATION_TYPE": "U", "NORAD_CAT_ID": 66908, "ELEMENT_SET_NO": 999, "REV_AT_EPOCH": 115, "BSTAR": 0.0013388, "MEAN_MOTION_DOT": 0.00079389, "MEAN_MOTION_DDOT": 0}, "tle": {"line1": "1 66908U 98067XU  25343.76282734  .00079389  00000+0  13388-2 0  9995", "line2": "2 66908  51.6303 157.1615 0005009 208.2103 151.8616 15.50948128  1153"}}, "geometry": {"type": "Point", "coordinates": [126.92459076988678, -30.676539494096517]}}, {"type": "Feature", "properties": {"norad_id": 66909, "name": "SILVERSAT", "group": "stations", "lat": -29.877434452572263, "lon": 127.87966892311668, "alt_km": 418.14544129265505, "timestamp": "2025-12-10T04:57:28.382064+00:00", "meta": {"OBJECT_NAME": "SILVERSAT", "OBJECT_ID": "1998-067XV", "EPOCH": "2025-12-09T19:50:59.695584", "MEAN_MOTION": 15.51056405, "ECCENTRICITY": 0.0004877, "INCLINATION": 51.6304, "RA_OF_ASC_NODE": 156.8402, "ARG_OF_PERICENTER": 210.6195, "MEAN_ANOMALY": 149.451, "EPHEMERIS_TYPE": 0, "CLASSIFICATION_TYPE": "U", "NORAD_CAT_ID": 66909, "ELEMENT_SET_NO": 999, "REV_AT_EPOCH": 116, "BSTAR": 0.00154, "MEAN_MOTION_DOT": 0.00091886, "MEAN_MOTION_DDOT": 0}, "tle": {"line1": "1 66909U 98067XV  25343.82707981  .00091886  00000+0  15400-2 0  9992", "line2": "2 66909  51.6304 156.8402 0004877 210.6195 149.4510 15.51056405  1161"}}, "geometry": {"type": "Point", "coordinates": [127.87966892311668, -29.877434452572263]}}, {"type": "Feature", "properties": {"norad_id": 66910, "name": "1998-067XW", "group": "stations", "lat": -24.915729080133552, "lon": 133.3470064768795, "alt_km": 418.8419277496041, "timestamp": "2025-12-10T04:57:28.382074+00:00", "meta": {"OBJECT_NAME": "1998-067XW", "OBJECT_ID": "1998-067XW", "EPOCH": "2025-12-09T18:16:30.088704", "MEAN_MOTION": 15.51233501, "ECCENTRICITY": 0.0005725, "INCLINATION": 51.6303, "RA_OF_ASC_NODE": 157.1524, "ARG_OF_PERICENTER": 193.6821, "MEAN_ANOMALY": 166.4014, "EPHEMERIS_TYPE": 0, "CLASSIFICATION_TYPE": "U", "NORAD_CAT_ID": 66910, "ELEMENT_SET_NO": 999, "REV_AT_EPOCH": 115, "BSTAR": 0.0012863, "MEAN_MOTION_DOT": 0.00077029, "MEAN_MOTION_DDOT": 0}, "tle": {"line1": "1 66910U 98067XW  25343.76145936  .00077029  00000+0  12863-2 0  9996", "line2": "2 66910  51.6303 157.1524 0005725 193.6821 166.4014 15.51233501  1151"}}, "geometry": {"type": "Point", "coordinates": [133.3470064768795, -24.915729080133552]}}]}